[{"OBJECT_NAME":"YUNHAI-2 01B","OBJECT_ID":"2018-112B","EPOCH":"2026-03-09T18:01:16.468320","MEAN_MOTION":14.28967374,"ECCENTRICITY":0.00050306,"INCLINATION":50.0104,"RA_OF_ASC_NODE":169.9221,"ARG_OF_PERICENTER":231.5656,"MEAN_ANOMALY":128.4808,"EPHEMERIS_TYPE":0,"CLASSIFICATION_TYPE":"U","NORAD_CAT_ID":43910,"ELEMENT_SET_NO":999,"REV_AT_EPOCH":37602,"BSTAR":7.0397417e-5,"MEAN_MOTION_DOT":1.8e-7,"MEAN_MOTION_DDOT":0},{"OBJECT_NAME":"SCOUT A DEB","OBJECT_ID":"1970-067C","EPOCH":"2026-03-09T11:32:29.269248","MEAN_MOTION":14.31358883,"ECCENTRICITY":0.00203312,"INCLINATION":89.9425,"RA_OF_ASC_NODE":251.7496,"ARG_OF_PERICENTER":289.2821,"MEAN_ANOMALY":70.6176,"EPHEMERIS_TYPE":0,"CLASSIFICATION_TYPE":"U","NORAD_CAT_ID":5036,"ELEMENT_SET_NO":999,"REV_AT_EPOCH":84230,"BSTAR":0.0011110448,"MEAN_MOTION_DOT":2.96e-5,"MEAN_MOTION_DDOT":0}]
